ONEWEB-0634             
1 56075U 23043AF  24293.50439162 -.00000129  00000+0 -37788-3 0  9994
2 56075  87.9130  19.7714 0001754  88.4149 271.7183 13.15547736 76760
ONEWEB-0635             
1 56076U 23043AG  24293.49963495 -.00000247  00000+0 -68898-3 0  9991
2 56076  87.9098  19.8238 0001890 112.8413 247.2917 13.15549024 76791
ONEWEB-0636             
1 56077U 23043AH  24294.17621306 -.00001173  00000+0 -31488-2 0  9993
2 56077  87.9126  19.6596 0001883 112.6133 247.5197 13.15554226 77770
ONEWEB-0637             
1 56078U 23043AJ  24294.24595496  .00000129  00000+0  30877-3 0  9992
2 56078  87.9129  19.6244 0001899 113.4316 246.7014 13.15548061 77806
ONEWEB-0647             
1 56079U 23043AK  24294.24119910  .00000216  00000+0  53886-3 0  9998
2 56079  87.9126  19.6409 0002021 105.9830 254.1523 13.15549482 76885
ONEWEB-0651             
1 56080U 23043AL  24293.47586111  .00000120  00000+0  28454-3 0  9992
2 56080  87.9131  19.7735 0001697 112.6942 247.4368 13.15549565 77989
ONEWEB-0718             
1 56081U 23043AM  24294.23169056  .00000275  00000+0  69683-3 0  9993
2 56081  87.9131  19.6091 0001616  84.9689 275.1626 13.15546812 77802
ONEWEB-0561             
1 56710U 23068A   24293.74950462  .00000075  00000+0  15328-3 0  9998
2 56710  87.9299  34.9194 0002092 119.5235 240.6107 13.20771058 69586
